CCSDS_OMM_VERS = 2.0
CREATION_DATE  = 
ORIGINATOR     = 

OBJECT_NAME    = COSMOS 1933
OBJECT_ID      = 1988-020A
CENTER_NAME    = EARTH
REF_FRAME      = TEME
TIME_SYSTEM    = UTC
MEAN_ELEMENT_THEORY = SGP/SGP4

EPOCH          = 2026-02-15T02:41:51.218304
MEAN_MOTION    = 15.17779965
ECCENTRICITY   = .0002643
INCLINATION    = 82.5113
RA_OF_ASC_NODE = 273.2511
ARG_OF_PERICENTER = 288.4188
MEAN_ANOMALY   = 71.6758

EPHEMERIS_TYPE = 0
CLASSIFICATION_TYPE = U
NORAD_CAT_ID   = 18958
ELEMENT_SET_NO = 999
REV_AT_EPOCH   = 4680
BSTAR          = .17353E-3
MEAN_MOTION_DOT = .3535E-4
MEAN_MOTION_DDOT = 0

CCSDS_OMM_VERS = 2.0
CREATION_DATE  = 
ORIGINATOR     = 

OBJECT_NAME    = SL-3 R/B
OBJECT_ID      = 1988-032B
CENTER_NAME    = EARTH
REF_FRAME      = TEME
TIME_SYSTEM    = UTC
MEAN_ELEMENT_THEORY = SGP/SGP4

EPOCH          = 2026-02-15T03:34:13.515456
MEAN_MOTION    = 15.19614653
ECCENTRICITY   = .0024733
INCLINATION    = 97.5152
RA_OF_ASC_NODE = 29.4906
ARG_OF_PERICENTER = 315.9941
MEAN_ANOMALY   = 43.9324

EPHEMERIS_TYPE = 0
CLASSIFICATION_TYPE = U
NORAD_CAT_ID   = 19046
ELEMENT_SET_NO = 999
REV_AT_EPOCH   = 4868
BSTAR          = .26228E-3
MEAN_MOTION_DOT = .556E-4
MEAN_MOTION_DDOT = 0

CCSDS_OMM_VERS = 2.0
CREATION_DATE  = 
ORIGINATOR     = 

OBJECT_NAME    = SL-16 R/B
OBJECT_ID      = 1988-039B
CENTER_NAME    = EARTH
REF_FRAME      = TEME
TIME_SYSTEM    = UTC
MEAN_ELEMENT_THEORY = SGP/SGP4

EPOCH          = 2026-02-15T03:36:33.480000
MEAN_MOTION    = 14.19612839
ECCENTRICITY   = .0021369
INCLINATION    = 71.0143
RA_OF_ASC_NODE = 116.2106
ARG_OF_PERICENTER = 8.5131
MEAN_ANOMALY   = 351.6352

EPHEMERIS_TYPE = 0
CLASSIFICATION_TYPE = U
NORAD_CAT_ID   = 19120
ELEMENT_SET_NO = 999
REV_AT_EPOCH   = 95518
BSTAR          = .10373E-3
MEAN_MOTION_DOT = .171E-5
MEAN_MOTION_DDOT = 0

CCSDS_OMM_VERS = 2.0
CREATION_DATE  = 
ORIGINATOR     = 

OBJECT_NAME    = COSMOS 1953
OBJECT_ID      = 1988-050A
CENTER_NAME    = EARTH
REF_FRAME      = TEME
TIME_SYSTEM    = UTC
MEAN_ELEMENT_THEORY = SGP/SGP4

EPOCH          = 2026-02-14T20:10:11.231328
MEAN_MOTION    = 15.28065654
ECCENTRICITY   = .001098
INCLINATION    = 82.5095
RA_OF_ASC_NODE = 181.2132
ARG_OF_PERICENTER = 199.9854
MEAN_ANOMALY   = 160.0957

EPHEMERIS_TYPE = 0
CLASSIFICATION_TYPE = U
NORAD_CAT_ID   = 19210
ELEMENT_SET_NO = 999
REV_AT_EPOCH   = 3429
BSTAR          = .341E-3
MEAN_MOTION_DOT = .938E-4
MEAN_MOTION_DDOT = 0

CCSDS_OMM_VERS = 2.0
CREATION_DATE  = 
ORIGINATOR     = 

OBJECT_NAME    = SL-8 R/B
OBJECT_ID      = 1988-053B
CENTER_NAME    = EARTH
REF_FRAME      = TEME
TIME_SYSTEM    = UTC
MEAN_ELEMENT_THEORY = SGP/SGP4

EPOCH          = 2026-02-14T15:38:06.880128
MEAN_MOTION    = 14.38901648
ECCENTRICITY   = .0020663
INCLINATION    = 74.0485
RA_OF_ASC_NODE = 154.9281
ARG_OF_PERICENTER = 338.3345
MEAN_ANOMALY   = 123.2091

EPHEMERIS_TYPE = 0
CLASSIFICATION_TYPE = U
NORAD_CAT_ID   = 19257
ELEMENT_SET_NO = 999
REV_AT_EPOCH   = 97328
BSTAR          = .8447E-4
MEAN_MOTION_DOT = .234E-5
MEAN_MOTION_DDOT = 0

CCSDS_OMM_VERS = 2.0
CREATION_DATE  = 
ORIGINATOR     = 

OBJECT_NAME    = COSMOS 1975
OBJECT_ID      = 1988-093A
CENTER_NAME    = EARTH
REF_FRAME      = TEME
TIME_SYSTEM    = UTC
MEAN_ELEMENT_THEORY = SGP/SGP4

EPOCH          = 2026-02-15T04:41:17.091744
MEAN_MOTION    = 15.27677393
ECCENTRICITY   = .0010402
INCLINATION    = 82.5224
RA_OF_ASC_NODE = 140.2537
ARG_OF_PERICENTER = 246.1575
MEAN_ANOMALY   = 113.8575

EPHEMERIS_TYPE = 0
CLASSIFICATION_TYPE = U
NORAD_CAT_ID   = 19573
ELEMENT_SET_NO = 999
REV_AT_EPOCH   = 1597
BSTAR          = .29715E-3
MEAN_MOTION_DOT = .808E-4
MEAN_MOTION_DDOT = 0

CCSDS_OMM_VERS = 2.0
CREATION_DATE  = 
ORIGINATOR     = 

OBJECT_NAME    = SL-14 R/B
OBJECT_ID      = 1988-093B
CENTER_NAME    = EARTH
REF_FRAME      = TEME
TIME_SYSTEM    = UTC
MEAN_ELEMENT_THEORY = SGP/SGP4

EPOCH          = 2026-02-15T02:22:13.315872
MEAN_MOTION    = 14.85629319
ECCENTRICITY   = .0022241
INCLINATION    = 82.5278
RA_OF_ASC_NODE = 63.2564
ARG_OF_PERICENTER = 111.4519
MEAN_ANOMALY   = 307.8353

EPHEMERIS_TYPE = 0
CLASSIFICATION_TYPE = U
NORAD_CAT_ID   = 19574
ELEMENT_SET_NO = 999
REV_AT_EPOCH   = 99768
BSTAR          = .46282E-4
MEAN_MOTION_DOT = .427E-5
MEAN_MOTION_DDOT = 0

CCSDS_OMM_VERS = 2.0
CREATION_DATE  = 
ORIGINATOR     = 

OBJECT_NAME    = SL-16 R/B
OBJECT_ID      = 1988-102B
CENTER_NAME    = EARTH
REF_FRAME      = TEME
TIME_SYSTEM    = UTC
MEAN_ELEMENT_THEORY = SGP/SGP4

EPOCH          = 2026-02-14T21:04:12.504864
MEAN_MOTION    = 14.16150854
ECCENTRICITY   = .0012725
INCLINATION    = 70.9986
RA_OF_ASC_NODE = 199.4908
ARG_OF_PERICENTER = 38.4297
MEAN_ANOMALY   = 321.7730

EPHEMERIS_TYPE = 0
CLASSIFICATION_TYPE = U
NORAD_CAT_ID   = 19650
ELEMENT_SET_NO = 999
REV_AT_EPOCH   = 92366
BSTAR          = .12729E-3
MEAN_MOTION_DOT = .204E-5
MEAN_MOTION_DDOT = 0

CCSDS_OMM_VERS = 2.0
CREATION_DATE  = 
ORIGINATOR     = 

OBJECT_NAME    = INTERCOSMOS 24
OBJECT_ID      = 1989-080A
CENTER_NAME    = EARTH
REF_FRAME      = TEME
TIME_SYSTEM    = UTC
MEAN_ELEMENT_THEORY = SGP/SGP4

EPOCH          = 2026-02-15T03:58:28.220160
MEAN_MOTION    = 12.59524691
ECCENTRICITY   = .1187633
INCLINATION    = 82.6057
RA_OF_ASC_NODE = 119.0669
ARG_OF_PERICENTER = 345.1373
MEAN_ANOMALY   = 11.7434

EPHEMERIS_TYPE = 0
CLASSIFICATION_TYPE = U
NORAD_CAT_ID   = 20261
ELEMENT_SET_NO = 999
REV_AT_EPOCH   = 66396
BSTAR          = .13916E-3
MEAN_MOTION_DOT = .48E-5
MEAN_MOTION_DDOT = 0

CCSDS_OMM_VERS = 2.0
CREATION_DATE  = 
ORIGINATOR     = 

OBJECT_NAME    = SL-14 R/B
OBJECT_ID      = 1989-080C
CENTER_NAME    = EARTH
REF_FRAME      = TEME
TIME_SYSTEM    = UTC
MEAN_ELEMENT_THEORY = SGP/SGP4

EPOCH          = 2026-02-14T18:00:42.263424
MEAN_MOTION    = 12.50464005
ECCENTRICITY   = .1229599
INCLINATION    = 82.5953
RA_OF_ASC_NODE = 187.9103
ARG_OF_PERICENTER = 237.1960
MEAN_ANOMALY   = 110.4851

EPHEMERIS_TYPE = 0
CLASSIFICATION_TYPE = U
NORAD_CAT_ID   = 20262
ELEMENT_SET_NO = 999
REV_AT_EPOCH   = 65728
BSTAR          = .15251E-3
MEAN_MOTION_DOT = .506E-5
MEAN_MOTION_DDOT = 0

CCSDS_OMM_VERS = 2.0
CREATION_DATE  = 
ORIGINATOR     = 

OBJECT_NAME    = DELTA 1 R/B
OBJECT_ID      = 1989-089B
CENTER_NAME    = EARTH
REF_FRAME      = TEME
TIME_SYSTEM    = UTC
MEAN_ELEMENT_THEORY = SGP/SGP4

EPOCH          = 2026-02-15T03:13:34.190400
MEAN_MOTION    = 14.50643765
ECCENTRICITY   = .0068714
INCLINATION    = 97.0722
RA_OF_ASC_NODE = 257.1581
ARG_OF_PERICENTER = 192.7987
MEAN_ANOMALY   = 167.1469

EPHEMERIS_TYPE = 0
CLASSIFICATION_TYPE = U
NORAD_CAT_ID   = 20323
ELEMENT_SET_NO = 999
REV_AT_EPOCH   = 89246
BSTAR          = .86674E-4
MEAN_MOTION_DOT = .315E-5
MEAN_MOTION_DDOT = 0

CCSDS_OMM_VERS = 2.0
CREATION_DATE  = 
ORIGINATOR     = 

OBJECT_NAME    = ARIANE 40 R/B
OBJECT_ID      = 1990-005H
CENTER_NAME    = EARTH
REF_FRAME      = TEME
TIME_SYSTEM    = UTC
MEAN_ELEMENT_THEORY = SGP/SGP4

EPOCH          = 2026-02-15T03:49:24.573216
MEAN_MOTION    = 14.39854924
ECCENTRICITY   = .0008877
INCLINATION    = 98.3134
RA_OF_ASC_NODE = 107.4863
ARG_OF_PERICENTER = 272.1024
MEAN_ANOMALY   = 87.9148

EPHEMERIS_TYPE = 0
CLASSIFICATION_TYPE = U
NORAD_CAT_ID   = 20443
ELEMENT_SET_NO = 999
REV_AT_EPOCH   = 88956
BSTAR          = .91657E-4
MEAN_MOTION_DOT = .245E-5
MEAN_MOTION_DDOT = 0

