COSMOS 1933             
1 18958U 88020A   26046.11239836  .00003535  00000+0  17353-3 0  9997
2 18958  82.5113 273.2511 0002643 288.4188  71.6758 15.17779965 46807
SL-3 R/B                
1 19046U 88032B   26046.14876754  .00005560  00000+0  26228-3 0  9999
2 19046  97.5152  29.4906 0024733 315.9941  43.9324 15.19614653 48684
SL-16 R/B               
1 19120U 88039B   26046.15038750  .00000171  00000+0  10373-3 0  9993
2 19120  71.0143 116.2106 0021369   8.5131 351.6352 14.19612839955184
COSMOS 1953             
1 19210U 88050A   26045.84040777  .00009380  00000+0  34100-3 0  9998
2 19210  82.5095 181.2132 0010980 199.9854 160.0957 15.28065654 34293
SL-8 R/B                
1 19257U 88053B   26045.65146852  .00000234  00000+0  84470-4 0  9997
2 19257  74.0485 154.9281 0020663 338.3345 123.2091 14.38901648973281
COSMOS 1975             
1 19573U 88093A   26046.19533671  .00008080  00000+0  29715-3 0  9998
2 19573  82.5224 140.2537 0010402 246.1575 113.8575 15.27677393 15971
SL-14 R/B               
1 19574U 88093B   26046.09876523  .00000427  00000+0  46282-4 0  9990
2 19574  82.5278  63.2564 0022241 111.4519 307.8353 14.85629319997685
SL-16 R/B               
1 19650U 88102B   26045.87792251  .00000204  00000+0  12729-3 0  9997
2 19650  70.9986 199.4908 0012725  38.4297 321.7730 14.16150854923666
INTERCOSMOS 24          
1 20261U 89080A   26046.16560440  .00000480  00000+0  13916-3 0  9994
2 20261  82.6057 119.0669 1187633 345.1373  11.7434 12.59524691663962
SL-14 R/B               
1 20262U 89080C   26045.75048916  .00000506  00000+0  15251-3 0  9991
2 20262  82.5953 187.9103 1229599 237.1960 110.4851 12.50464005657285
DELTA 1 R/B             
1 20323U 89089B   26046.13442350  .00000315  00000+0  86674-4 0  9997
2 20323  97.0722 257.1581 0068714 192.7987 167.1469 14.50643765892461
ARIANE 40 R/B           
1 20443U 90005H   26046.15931219  .00000245  00000+0  91657-4 0  9998
2 20443  98.3134 107.4863 0008877 272.1024  87.9148 14.39854924889562
